{
  "type": "FeatureCollection",
  "features": [
    {
      "type": "Feature",
      "properties": {
        "norad_id": 29869,
        "name": "FENGYUN 1C DEB",
        "group": "fengyun-1c-debris",
        "lat": 51.91771154124131,
        "lon": -96.35531218900675,
        "alt_km": 713.3192486859571,
        "timestamp": "2025-12-10T21:43:22.359741+00:00",
        "meta_object_name": "FENGYUN 1C DEB",
        "meta_object_id": "1999-025FP",
        "meta_epoch": "2025-12-10T15:21:12.155328",
        "meta_mean_motion": 14.36875957,
        "meta_eccentricity": 0.00877587,
        "meta_inclination": 98.8727,
        "meta_ra_of_asc_node": 274.87,
        "meta_arg_of_pericenter": 17.2112,
        "meta_mean_anomaly": 103.0281,
        "meta_ephemeris_type": 0,
        "meta_classification_type": "U",
        "meta_norad_cat_id": 29869,
        "meta_element_set_no": 999,
        "meta_rev_at_epoch": 98790,
        "meta_bstar": 0.00075074497,
        "meta_mean_motion_dot": 2.273e-05,
        "meta_mean_motion_ddot": 0,
        "tle_line1": "1 29869U 99025FP  25344.63972402  .00002273  00000+0  75074-3 0  9999",
        "tle_line2": "2 29869  98.8727 274.8700 0087758  17.2112 103.0281 14.36875957987907"
      },
      "geometry": {
        "type": "Point",
        "coordinates": [
          -96.35531218900675,
          51.91771154124131
        ]
      }
    },
    {
      "type": "Feature",
      "properties": {
        "norad_id": 29870,
        "name": "FENGYUN 1C DEB",
        "group": "fengyun-1c-debris",
        "lat": 46.302969885938154,
        "lon": 144.83790686677492,
        "alt_km": 753.7560574850677,
        "timestamp": "2025-12-10T21:43:22.359752+00:00",
        "meta_object_name": "FENGYUN 1C DEB",
        "meta_object_id": "1999-025FQ",
        "meta_epoch": "2025-12-10T10:02:40.472736",
        "meta_mean_motion": 14.28979298,
        "meta_eccentricity": 0.01197109,
        "meta_inclination": 98.4597,
        "meta_ra_of_asc_node": 315.4051,
        "meta_arg_of_pericenter": 199.2607,
        "meta_mean_anomaly": 313.1592,
        "meta_ephemeris_type": 0,
        "meta_classification_type": "U",
        "meta_norad_cat_id": 29870,
        "meta_element_set_no": 999,
        "meta_rev_at_epoch": 98560,
        "meta_bstar": 8.5264766e-05,
        "meta_mean_motion_dot": 1.89e-06,
        "meta_mean_motion_ddot": 0,
        "tle_line1": "1 29870U 99025FQ  25344.41852399  .00000189  00000+0  85265-4 0  9997",
        "tle_line2": "2 29870  98.4597 315.4051 0119710 199.2607 313.1592 14.28979298985603"
      },
      "geometry": {
        "type": "Point",
        "coordinates": [
          144.83790686677492,
          46.302969885938154
        ]
      }
    },
    {
      "type": "Feature",
      "properties": {
        "norad_id": 29871,
        "name": "FENGYUN 1C DEB",
        "group": "fengyun-1c-debris",
        "lat": -6.114624356084078,
        "lon": -61.09176108403146,
        "alt_km": 773.5440536673468,
        "timestamp": "2025-12-10T21:43:22.359762+00:00",
        "meta_object_name": "FENGYUN 1C DEB",
        "meta_object_id": "1999-025FR",
        "meta_epoch": "2025-12-10T10:38:02.311584",
        "meta_mean_motion": 14.426162,
        "meta_eccentricity": 0.00585662,
        "meta_inclination": 98.9728,
        "meta_ra_of_asc_node": 297.4525,
        "meta_arg_of_pericenter": 114.1995,
        "meta_mean_anomaly": 2.1298,
        "meta_ephemeris_type": 0,
        "meta_classification_type": "U",
        "meta_norad_cat_id": 29871,
        "meta_element_set_no": 999,
        "meta_rev_at_epoch": 98668,
        "meta_bstar": 0.0013524882,
        "meta_mean_motion_dot": 4.54e-05,
        "meta_mean_motion_ddot": 0,
        "tle_line1": "1 29871U 99025FR  25344.44308231  .00004540  00000+0  13525-2 0  9995",
        "tle_line2": "2 29871  98.9728 297.4525 0058566 114.1995   2.1298 14.42616200986681"
      },
      "geometry": {
        "type": "Point",
        "coordinates": [
          -61.09176108403146,
          -6.114624356084078
        ]
      }
    },
    {
      "type": "Feature",
      "properties": {
        "norad_id": 29872,
        "name": "FENGYUN 1C DEB",
        "group": "fengyun-1c-debris",
        "lat": -12.82640203187424,
        "lon": 179.0057876004977,
        "alt_km": 863.3628956925104,
        "timestamp": "2025-12-10T21:43:22.359773+00:00",
        "meta_object_name": "FENGYUN 1C DEB",
        "meta_object_id": "1999-025FS",
        "meta_epoch": "2025-12-10T07:27:37.866816",
        "meta_mean_motion": 14.38934191,
        "meta_eccentricity": 0.0235455,
        "meta_inclination": 98.346,
        "meta_ra_of_asc_node": 0.3424,
        "meta_arg_of_pericenter": 320.9165,
        "meta_mean_anomaly": 37.5213,
        "meta_ephemeris_type": 0,
        "meta_classification_type": "U",
        "meta_norad_cat_id": 29872,
        "meta_element_set_no": 999,
        "meta_rev_at_epoch": 98557,
        "meta_bstar": 0.00094122,
        "meta_mean_motion_dot": 3.961e-05,
        "meta_mean_motion_ddot": 0,
        "tle_line1": "1 29872U 99025FS  25344.31085494  .00003961  00000+0  94122-3 0  9994",
        "tle_line2": "2 29872  98.3460   0.3424 0235455 320.9165  37.5213 14.38934191985571"
      },
      "geometry": {
        "type": "Point",
        "coordinates": [
          179.0057876004977,
          -12.82640203187424
        ]
      }
    },
    {
      "type": "Feature",
      "properties": {
        "norad_id": 29873,
        "name": "FENGYUN 1C DEB",
        "group": "fengyun-1c-debris",
        "lat": -2.1770404018514085,
        "lon": 24.564768984859725,
        "alt_km": 840.8101979961957,
        "timestamp": "2025-12-10T21:43:22.359784+00:00",
        "meta_object_name": "FENGYUN 1C DEB",
        "meta_object_id": "1999-025FT",
        "meta_epoch": "2025-12-10T12:34:18.479136",
        "meta_mean_motion": 13.98145532,
        "meta_eccentricity": 0.00925001,
        "meta_inclination": 99.4422,
        "meta_ra_of_asc_node": 204.5351,
        "meta_arg_of_pericenter": 205.0497,
        "meta_mean_anomaly": 219.2881,
        "meta_ephemeris_type": 0,
        "meta_classification_type": "U",
        "meta_norad_cat_id": 29873,
        "meta_element_set_no": 999,
        "meta_rev_at_epoch": 96284,
        "meta_bstar": 0.00019583074,
        "meta_mean_motion_dot": 2.42e-06,
        "meta_mean_motion_ddot": 0,
        "tle_line1": "1 29873U 99025FT  25344.52382499  .00000242  00000+0  19583-3 0  9990",
        "tle_line2": "2 29873  99.4422 204.5351 0092500 205.0497 219.2881 13.98145532962845"
      },
      "geometry": {
        "type": "Point",
        "coordinates": [
          24.564768984859725,
          -2.1770404018514085
        ]
      }
    },
    {
      "type": "Feature",
      "properties": {
        "norad_id": 29874,
        "name": "FENGYUN 1C DEB",
        "group": "fengyun-1c-debris",
        "lat": -18.61788689778107,
        "lon": 59.01778540404095,
        "alt_km": 870.4990802028487,
        "timestamp": "2025-12-10T21:43:22.359795+00:00",
        "meta_object_name": "FENGYUN 1C DEB",
        "meta_object_id": "1999-025FU",
        "meta_epoch": "2025-12-10T04:41:44.491776",
        "meta_mean_motion": 14.28744183,
        "meta_eccentricity": 0.01053071,
        "meta_inclination": 98.3791,
        "meta_ra_of_asc_node": 241.1822,
        "meta_arg_of_pericenter": 358.1608,
        "meta_mean_anomaly": 153.9668,
        "meta_ephemeris_type": 0,
        "meta_classification_type": "U",
        "meta_norad_cat_id": 29874,
        "meta_element_set_no": 999,
        "meta_rev_at_epoch": 96811,
        "meta_bstar": 0.0044170905,
        "meta_mean_motion_dot": 0.00011777,
        "meta_mean_motion_ddot": 0,
        "tle_line1": "1 29874U 99025FU  25344.19565384  .00011777  00000+0  44171-2 0  9995",
        "tle_line2": "2 29874  98.3791 241.1822 0105307 358.1608 153.9668 14.28744183968111"
      },
      "geometry": {
        "type": "Point",
        "coordinates": [
          59.01778540404095,
          -18.61788689778107
        ]
      }
    },
    {
      "type": "Feature",
      "properties": {
        "norad_id": 29875,
        "name": "FENGYUN 1C DEB",
        "group": "fengyun-1c-debris",
        "lat": 68.60132818723869,
        "lon": 14.239277157626525,
        "alt_km": 742.4201038367182,
        "timestamp": "2025-12-10T21:43:22.359805+00:00",
        "meta_object_name": "FENGYUN 1C DEB",
        "meta_object_id": "1999-025FV",
        "meta_epoch": "2025-12-10T15:21:13.483296",
        "meta_mean_motion": 14.2487802,
        "meta_eccentricity": 0.00832183,
        "meta_inclination": 98.4054,
        "meta_ra_of_asc_node": 36.1526,
        "meta_arg_of_pericenter": 69.3738,
        "meta_mean_anomaly": 80.3782,
        "meta_ephemeris_type": 0,
        "meta_classification_type": "U",
        "meta_norad_cat_id": 29875,
        "meta_element_set_no": 999,
        "meta_rev_at_epoch": 98292,
        "meta_bstar": 4.0596207e-05,
        "meta_mean_motion_dot": 5.7e-07,
        "meta_mean_motion_ddot": 0,
        "tle_line1": "1 29875U 99025FV  25344.63973939  .00000057  00000+0  40596-4 0  9992",
        "tle_line2": "2 29875  98.4054  36.1526 0083218  69.3738  80.3782 14.24878020982928"
      },
      "geometry": {
        "type": "Point",
        "coordinates": [
          14.239277157626525,
          68.60132818723869
        ]
      }
    }
  ]
}